
    {
        "ARG_OF_PERICENTER": 310.0292,
        "BSTAR": 0.00023393,
        "CLASSIFICATION_TYPE": "U",
        "ECCENTRICITY": 0.001159,
        "ELEMENT_SET_NO": 999,
        "EPHEMERIS_TYPE": 0,
        "EPOCH": "2026-05-04T20:27:20.936160",
        "INCLINATION": 98.1162,
        "MEAN_ANOMALY": 49.9909,
        "MEAN_MOTION": 14.93447588,
        "MEAN_MOTION_DDOT": 0,
        "MEAN_MOTION_DOT": 2.4e-05,
        "NORAD_CAT_ID": 39151,
        "OBJECT_ID": "2013-018B",
        "OBJECT_NAME": "NEE-01 PEGASO",
        "RA_OF_ASC_NODE": 267.5918,
        "REV_AT_EPOCH": 70423
    },
    {
        "ARG_OF_PERICENTER": 333.9373,
        "BSTAR": 0.00028911,
        "CLASSIFICATION_TYPE": "U",
        "ECCENTRICITY": 0.0420449,
        "ELEMENT_SET_NO": 999,
        "EPHEMERIS_TYPE": 0,
        "EPOCH": "2026-05-04T14:43:43.843296",
        "INCLINATION": 80.9929,
        "MEAN_ANOMALY": 24.119,
        "MEAN_MOTION": 14.90206977,
        "MEAN_MOTION_DDOT": 0,
        "MEAN_MOTION_DOT": 0.00016861,
        "NORAD_CAT_ID": 39269,
        "OBJECT_ID": "2013-055E",
        "OBJECT_NAME": "POPACS 2",
        "RA_OF_ASC_NODE": 194.0338,
        "REV_AT_EPOCH": 65672
    },
    {
        "ARG_OF_PERICENTER": 203.1602,
        "BSTAR": 0.00032029638,
        "CLASSIFICATION_TYPE": "U",
        "ECCENTRICITY": 0.05551877,
        "ELEMENT_SET_NO": 999,
        "EPHEMERIS_TYPE": 0,
        "EPOCH": "2026-05-04T09:34:35.671008",
        "INCLINATION": 81.0007,
        "MEAN_ANOMALY": 154.3681,
        "MEAN_MOTION": 14.550358,
        "MEAN_MOTION_DDOT": 0,
        "MEAN_MOTION_DOT": 0.00013295,
        "NORAD_CAT_ID": 39270,
        "OBJECT_ID": "2013-055F",
        "OBJECT_NAME": "POPACS 3",
        "RA_OF_ASC_NODE": 276.6269,
        "REV_AT_EPOCH": 63218
    },
    {
        "ARG_OF_PERICENTER": 38.9211,
        "BSTAR": 0.00042082,
        "CLASSIFICATION_TYPE": "U",
        "ECCENTRICITY": 0.0043074,
        "ELEMENT_SET_NO": 999,
        "EPHEMERIS_TYPE": 0,
        "EPOCH": "2026-05-04T19:26:12.913152",
        "INCLINATION": 97.813,
        "MEAN_ANOMALY": 321.51,
        "MEAN_MOTION": 15.00846198,
        "MEAN_MOTION_DDOT": 0,
        "MEAN_MOTION_DOT": 5.393e-05,
        "NORAD_CAT_ID": 39417,
        "OBJECT_ID": "2013-066B",
        "OBJECT_NAME": "ZACUBE-1 (TSHEPISOSAT)",
        "RA_OF_ASC_NODE": 86.913,
        "REV_AT_EPOCH": 67422
    },
    {
        "ARG_OF_PERICENTER": 10.4746,
        "BSTAR": 0.00010006696,
        "CLASSIFICATION_TYPE": "U",
        "ECCENTRICITY": 0.01633775,
        "ELEMENT_SET_NO": 999,
        "EPHEMERIS_TYPE": 0,
        "EPOCH": "2026-05-04T08:36:52.433280",
        "INCLINATION": 97.7145,
        "MEAN_ANOMALY": 349.979,
        "MEAN_MOTION": 14.58009497,
        "MEAN_MOTION_DDOT": 0,
        "MEAN_MOTION_DOT": 5.03e-06,
        "NORAD_CAT_ID": 39423,
        "OBJECT_ID": "2013-066H",
        "OBJECT_NAME": "WNISAT-1",
        "RA_OF_ASC_NODE": 276.6404,
        "REV_AT_EPOCH": 66034
    },
    {
        "ARG_OF_PERICENTER": 16.7481,
        "BSTAR": 0.00038889,
        "CLASSIFICATION_TYPE": "U",
        "ECCENTRICITY": 0.0090877,
        "ELEMENT_SET_NO": 999,
        "EPHEMERIS_TYPE": 0,
        "EPOCH": "2026-05-04T19:16:21.194976",
        "INCLINATION": 97.8273,
        "MEAN_ANOMALY": 343.6698,
        "MEAN_MOTION": 14.81508889,
        "MEAN_MOTION_DDOT": 0,
        "MEAN_MOTION_DOT": 3.218e-05,
        "NORAD_CAT_ID": 39427,
        "OBJECT_ID": "2013-066M",
        "OBJECT_NAME": "TRITON-1",
        "RA_OF_ASC_NODE": 35.6,
        "REV_AT_EPOCH": 66766
    },
    {
        "ARG_OF_PERICENTER": 216.3374,
        "BSTAR": 0.00036849,
        "CLASSIFICATION_TYPE": "U",
        "ECCENTRICITY": 0.0127893,
        "ELEMENT_SET_NO": 999,
        "EPHEMERIS_TYPE": 0,
        "EPOCH": "2026-05-04T19:22:28.820064",
        "INCLINATION": 97.6507,
        "MEAN_ANOMALY": 142.9099,
        "MEAN_MOTION": 14.69295096,
        "MEAN_MOTION_DDOT": 0,
        "MEAN_MOTION_DOT": 2.413e-05,
        "NORAD_CAT_ID": 39430,
        "OBJECT_ID": "2013-066Q",
        "OBJECT_NAME": "GOMX-1",
        "RA_OF_ASC_NODE": 328.0041,
        "REV_AT_EPOCH": 66354
    },
    {
        "ARG_OF_PERICENTER": 169.8417,
        "BSTAR": 0.00029497,
        "CLASSIFICATION_TYPE": "U",
        "ECCENTRICITY": 0.0058175,
        "ELEMENT_SET_NO": 999,
        "EPHEMERIS_TYPE": 0,
        "EPOCH": "2026-05-04T18:50:07.291104",
        "INCLINATION": 97.8881,
        "MEAN_ANOMALY": 190.3993,
        "MEAN_MOTION": 14.93447275,
        "MEAN_MOTION_DDOT": 0,
        "MEAN_MOTION_DOT": 3.143e-05,
        "NORAD_CAT_ID": 39440,
        "OBJECT_ID": "2013-066AA",
        "OBJECT_NAME": "CUBEBUG-2 (LO-74)",
        "RA_OF_ASC_NODE": 73.6,
        "REV_AT_EPOCH": 67051
    },
    {
        "ARG_OF_PERICENTER": 210.9526,
        "BSTAR": 0.00019565,
        "CLASSIFICATION_TYPE": "U",
        "ECCENTRICITY": 0.0065416,
        "ELEMENT_SET_NO": 999,
        "EPHEMERIS_TYPE": 0,
        "EPOCH": "2026-05-04T19:01:32.940768",
        "INCLINATION": 97.8877,
        "MEAN_ANOMALY": 148.7828,
        "MEAN_MOTION": 14.86461911,
        "MEAN_MOTION_DDOT": 0,
        "MEAN_MOTION_DOT": 1.738e-05,
        "NORAD_CAT_ID": 39441,
        "OBJECT_ID": "2013-066AB",
        "OBJECT_NAME": "NEE-02 KRYSAOR",
        "RA_OF_ASC_NODE": 64.3289,
        "REV_AT_EPOCH": 66975
    },
    {
        "ARG_OF_PERICENTER": 355.8434,
        "BSTAR": 0.00053024,
        "CLASSIFICATION_TYPE": "U",
        "ECCENTRICITY": 0.0036396,
        "ELEMENT_SET_NO": 999,
        "EPHEMERIS_TYPE": 0,
        "EPOCH": "2026-05-04T11:54:23.613696",
        "INCLINATION": 97.8257,
        "MEAN_ANOMALY": 4.2486,
        "MEAN_MOTION": 15.08910363,
        "MEAN_MOTION_DDOT": 0,
        "MEAN_MOTION_DOT": 8.427e-05,
        "NORAD_CAT_ID": 39444,
        "OBJECT_ID": "2013-066AE",
        "OBJECT_NAME": "FUNCUBE-1 (AO-73)",
        "RA_OF_ASC_NODE": 95.0571,
        "REV_AT_EPOCH": 67307
    },
    {
        "ARG_OF_PERICENTER": 103.6452,
        "BSTAR": 0.00042837,
        "CLASSIFICATION_TYPE": "U",
        "ECCENTRICITY": 0.005135,
        "ELEMENT_SET_NO": 999,
        "EPHEMERIS_TYPE": 0,
        "EPOCH": "2026-05-04T19:56:19.703040",
        "INCLINATION": 97.8686,
        "MEAN_ANOMALY": 257.0495,
        "MEAN_MOTION": 14.96671152,
        "MEAN_MOTION_DDOT": 0,
        "MEAN_MOTION_DOT": 4.959e-05,
        "NORAD_CAT_ID": 39446,
        "OBJECT_ID": "2013-066AG",
        "OBJECT_NAME": "UWE-3",
        "RA_OF_ASC_NODE": 80.6349,
        "REV_AT_EPOCH": 67109
    },
    {
        "ARG_OF_PERICENTER": 58.1081,
        "BSTAR": 0.00013668877,
        "CLASSIFICATION_TYPE": "U",
        "ECCENTRICITY": 0.00798146,
        "ELEMENT_SET_NO": 999,
        "EPHEMERIS_TYPE": 0,
        "EPOCH": "2026-05-04T06:44:23.966880",
        "INCLINATION": 97.9673,
        "MEAN_ANOMALY": 302.7861,
        "MEAN_MOTION": 14.72614669,
        "MEAN_MOTION_DDOT": 0,
        "MEAN_MOTION_DOT": 8.62e-06,
        "NORAD_CAT_ID": 40020,
        "OBJECT_ID": "2014-033L",
        "OBJECT_NAME": "BRITE-CA1 (TORONTO)",
        "RA_OF_ASC_NODE": 254.0364,
        "REV_AT_EPOCH": 63575
    },
    {
        "ARG_OF_PERICENTER": 209.5128,
        "BSTAR": 0.001068,
        "CLASSIFICATION_TYPE": "U",
        "ECCENTRICITY": 0.0005102,
        "ELEMENT_SET_NO": 999,
        "EPHEMERIS_TYPE": 0,
        "EPOCH": "2026-05-04T16:10:42.286656",
        "INCLINATION": 98.0511,
        "MEAN_ANOMALY": 150.5838,
        "MEAN_MOTION": 15.57272893,
        "MEAN_MOTION_DDOT": 0,
        "MEAN_MOTION_DOT": 0.00078431,
        "NORAD_CAT_ID": 40021,
        "OBJECT_ID": "2014-033M",
        "OBJECT_NAME": "DUCHIFAT-1",
        "RA_OF_ASC_NODE": 178.0054,
        "REV_AT_EPOCH": 64896
    }