NEE-01 PEGASO           
1 39151U 13018B   26124.85232565  .00002400  00000+0  23393-3 0  9991
2 39151  98.1162 267.5918 0011590 310.0292  49.9909 14.93447588704238
POPACS 2                
1 39269U 13055E   26124.61370189  .00016861  00000+0  28911-3 0  9998
2 39269  80.9929 194.0338 0420449 333.9373  24.1190 14.90206977656728
POPACS 3                
1 39270U 13055F   26124.39902397  .00013295  00000+0  32030-3 0  9992
2 39270  81.0007 276.6269 0555187 203.1602 154.3681 14.55035800632181
ZACUBE-1 (TSHEPISOSAT)  
1 39417U 13066B   26124.80987168  .00005393  00000+0  42082-3 0  9990
2 39417  97.8130  86.9130 0043074  38.9211 321.5100 15.00846198674228
WNISAT-1                
1 39423U 13066H   26124.35894020  .00000503  00000+0  10007-3 0  9991
2 39423  97.7145 276.6404 0163377  10.4746 349.9790 14.58009497660341
TRITON-1                
1 39427U 13066M   26124.80302309  .00003218  00000+0  38889-3 0  9993
2 39427  97.8273  35.6000 0090877  16.7481 343.6698 14.81508889667667
GOMX-1                  
1 39430U 13066Q   26124.80727801  .00002413  00000+0  36849-3 0  9995
2 39430  97.6507 328.0041 0127893 216.3374 142.9099 14.69295096663548
CUBEBUG-2 (LO-74)       
1 39440U 13066AA  26124.78480661  .00003143  00000+0  29497-3 0  9995
2 39440  97.8881  73.6000 0058175 169.8417 190.3993 14.93447275670510
NEE-02 KRYSAOR          
1 39441U 13066AB  26124.79274237  .00001738  00000+0  19565-3 0  9990
2 39441  97.8877  64.3289 0065416 210.9526 148.7828 14.86461911669750
FUNCUBE-1 (AO-73)       
1 39444U 13066AE  26124.49610664  .00008427  00000+0  53024-3 0  9998
2 39444  97.8257  95.0571 0036396 355.8434   4.2486 15.08910363673073
UWE-3                   
1 39446U 13066AG  26124.83078360  .00004959  00000+0  42837-3 0  9995
2 39446  97.8686  80.6349 0051350 103.6452 257.0495 14.96671152671094
BRITE-CA1 (TORONTO)     
1 40020U 14033L   26124.28083295  .00000862  00000+0  13669-3 0  9992
2 40020  97.9673 254.0364 0079814  58.1081 302.7861 14.72614669635754
DUCHIFAT-1              
1 40021U 14033M   26124.67410054  .00078431  00000+0  10680-2 0  9999
2 40021  98.0511 178.0054 0005102 209.5128 150.5838 15.57272893648965
